{
    "links": {
        "self": "http://www.neowsapp.com/rest/v1/neo/3838055?api_key=iIulBulltgU6a56xZRHN4H3l9WmuAYTsLGpBGhQ2"
    },
    "id": "3838055",
    "neo_reference_id": "3838055",
    "name": "(2019 BL4)",
    "designation": "2019 BL4",
    "nasa_jpl_url": "http://ssd.jpl.nasa.gov/sbdb.cgi?sstr=3838055",
    "absolute_magnitude_h": 27.8,
    "estimated_diameter": {
        "kilometers": {
            "estimated_diameter_min": 0.0073207399,
            "estimated_diameter_max": 0.016369672
        },
        "meters": {
            "estimated_diameter_min": 7.3207398935,
            "estimated_diameter_max": 16.3696720474
        },
        "miles": {
            "estimated_diameter_min": 0.0045488955,
            "estimated_diameter_max": 0.0101716395
        },
        "feet": {
            "estimated_diameter_min": 24.0181762721,
            "estimated_diameter_max": 53.70627484
        }
    },
    "is_potentially_hazardous_asteroid": false,
    "close_approach_data": [
        {
            "close_approach_date": "2019-01-30",
            "close_approach_date_full": "2019-Jan-30 05:07",
            "epoch_date_close_approach": 1548824820000,
            "relative_velocity": {
                "kilometers_per_second": "11.2623245237",
                "kilometers_per_hour": "40544.3682852174",
                "miles_per_hour": "25192.6937270008"
            },
            "miss_distance": {
                "astronomical": "0.0065946228",
                "lunar": "2.5653082692",
                "kilometers": "986541.524333436",
                "miles": "613008.4776399768"
            },
            "orbiting_body": "Earth"
        },
        {
            "close_approach_date": "2019-01-30",
            "close_approach_date_full": "2019-Jan-30 12:51",
            "epoch_date_close_approach": 1548852660000,
            "relative_velocity": {
                "kilometers_per_second": "10.8249683988",
                "kilometers_per_hour": "38969.8862355292",
                "miles_per_hour": "24214.371811182"
            },
            "miss_distance": {
                "astronomical": "0.0064750233",
                "lunar": "2.5187840637",
                "kilometers": "968649.693880371",
                "miles": "601891.0097202798"
            },
            "orbiting_body": "Moon"
        },
        {
            "close_approach_date": "2022-05-19",
            "close_approach_date_full": "2022-May-19 11:01",
            "epoch_date_close_approach": 1652958060000,
            "relative_velocity": {
                "kilometers_per_second": "20.4396336655",
                "kilometers_per_hour": "73582.6811959188",
                "miles_per_hour": "45721.4165464308"
            },
            "miss_distance": {
                "astronomical": "0.318313215",
                "lunar": "123.823840635",
                "kilometers": "47618978.95685205",
                "miles": "29589061.46077629"
            },
            "orbiting_body": "Earth"
        },
        {
            "close_approach_date": "2164-04-03",
            "close_approach_date_full": "2164-Apr-03 23:41",
            "epoch_date_close_approach": 6130165260000,
            "relative_velocity": {
                "kilometers_per_second": "3.4419425543",
                "kilometers_per_hour": "12390.9931956325",
                "miles_per_hour": "7699.2812998084"
            },
            "miss_distance": {
                "astronomical": "1.8547628769",
                "lunar": "721.5027591141",
                "kilometers": "277468575.739312203",
                "miles": "172410978.1611182814"
            },
            "orbiting_body": "Juptr"
        }
    ],
    "orbital_data": {
        "orbit_id": "4",
        "orbit_determination_date": "2019-12-04 07:17:37",
        "first_observation_date": "2019-01-25",
        "last_observation_date": "2019-01-30",
        "data_arc_in_days": 5,
        "observations_used": 51,
        "orbit_uncertainty": "7",
        "minimum_orbit_intersection": ".00583973",
        "jupiter_tisserand_invariant": "3.486",
        "epoch_osculation": "2459000.5",
        "eccentricity": ".5751596335079021",
        "semi_major_axis": "2.131277744450389",
        "inclination": "3.960193171832937",
        "ascending_node_longitude": "125.0514811307659",
        "orbital_period": "1136.471375995696",
        "perihelion_distance": ".9054528180487549",
        "perihelion_argument": "43.93653773973635",
        "aphelion_distance": "3.357102670852023",
        "perihelion_time": "2458542.762190729117",
        "mean_anomaly": "144.9975906283996",
        "mean_motion": ".3167699667618936",
        "equinox": "J2000",
        "orbit_class": {
            "orbit_class_type": "APO",
            "orbit_class_description": "Near-Earth asteroid orbits which cross the Earth’s orbit similar to that of 1862 Apollo",
            "orbit_class_range": "a (semi-major axis) > 1.0 AU; q (perihelion) < 1.017 AU"
        }
    },
    "is_sentry_object": false
}